[{"OBJECT_NAME":"GHGSAT-C5","OBJECT_ID":"2022-057N","EPOCH":"2026-03-09T21:50:12.501024","MEAN_MOTION":15.32921902,"ECCENTRICITY":0.00082696,"INCLINATION":97.6522,"RA_OF_ASC_NODE":212.4963,"ARG_OF_PERICENTER":109.8004,"MEAN_ANOMALY":250.413,"EPHEMERIS_TYPE":0,"CLASSIFICATION_TYPE":"U","NORAD_CAT_ID":52744,"ELEMENT_SET_NO":999,"REV_AT_EPOCH":21032,"BSTAR":0.00029214604,"MEAN_MOTION_DOT":9.218e-5,"MEAN_MOTION_DDOT":0},{"OBJECT_NAME":"STARLINK-34680","OBJECT_ID":"2025-190F","EPOCH":"2026-03-09T12:18:48.694176","MEAN_MOTION":15.30211378,"ECCENTRICITY":0.00015025,"INCLINATION":53.1591,"RA_OF_ASC_NODE":169.3184,"ARG_OF_PERICENTER":147.6233,"MEAN_ANOMALY":212.486,"EPHEMERIS_TYPE":0,"CLASSIFICATION_TYPE":"U","NORAD_CAT_ID":65356,"ELEMENT_SET_NO":999,"REV_AT_EPOCH":2925,"BSTAR":0.0010535781,"MEAN_MOTION_DOT":0.00030986,"MEAN_MOTION_DDOT":0}]
